STARLINK-5134           
1 53976U 22125N   26068.63880130 -.00000528  00000+0 -15088-4 0  9995
2 53976  53.2167 204.4704 0001085  87.3803 272.7313 15.08839594189599
STARLINK-6085           
1 57115U 23090Q   26068.53746065  .00027564  00000+0  15302-2 0  9997
2 57115  42.9983 264.1938 0019382 205.4773 154.5119 15.13089153150525
